{
  "type": "FeatureCollection",
  "features": [
    {
      "type": "Feature",
      "properties": {
        "norad_id": 35616,
        "name": "IRIDIUM 33 DEB",
        "group": "iridium-33-debris",
        "lat": 39.37726383635139,
        "lon": 167.29449779335536,
        "alt_km": 619.0702350438451,
        "timestamp": "2025-12-02T19:35:50.940134+00:00",
        "meta_object_name": "IRIDIUM 33 DEB",
        "meta_object_id": "1997-051QN",
        "meta_epoch": "2025-12-01T18:38:49.911648",
        "meta_mean_motion": 14.81359224,
        "meta_eccentricity": 0.00086191,
        "meta_inclination": 86.3548,
        "meta_ra_of_asc_node": 350.7677,
        "meta_arg_of_pericenter": 204.4295,
        "meta_mean_anomaly": 155.6519,
        "meta_ephemeris_type": 0,
        "meta_classification_type": "U",
        "meta_norad_cat_id": 35616,
        "meta_element_set_no": 999,
        "meta_rev_at_epoch": 87412,
        "meta_bstar": 0.0016385024,
        "meta_mean_motion_dot": 0.00012841,
        "meta_mean_motion_ddot": 0,
        "tle_line1": "1 35616U 97051QN  25335.77696657  .00012841  00000+0  16385-2 0  9994",
        "tle_line2": "2 35616  86.3548 350.7677 0008619 204.4295 155.6519 14.81359224874125"
      },
      "geometry": {
        "type": "Point",
        "coordinates": [
          167.29449779335536,
          39.37726383635139
        ]
      }
    },
    {
      "type": "Feature",
      "properties": {
        "norad_id": 35618,
        "name": "IRIDIUM 33 DEB",
        "group": "iridium-33-debris",
        "lat": -52.87989633739007,
        "lon": -177.3099146779035,
        "alt_km": 747.3124829919598,
        "timestamp": "2025-12-02T19:35:50.940145+00:00",
        "meta_object_name": "IRIDIUM 33 DEB",
        "meta_object_id": "1997-051QQ",
        "meta_epoch": "2025-11-27T19:27:47.606688",
        "meta_mean_motion": 14.52216193,
        "meta_eccentricity": 0.00308317,
        "meta_inclination": 86.3414,
        "meta_ra_of_asc_node": 0.0275,
        "meta_arg_of_pericenter": 70.0508,
        "meta_mean_anomaly": 290.4015,
        "meta_ephemeris_type": 0,
        "meta_classification_type": "U",
        "meta_norad_cat_id": 35618,
        "meta_element_set_no": 999,
        "meta_rev_at_epoch": 65177,
        "meta_bstar": 0.00046503481,
        "meta_mean_motion_dot": 1.919e-05,
        "meta_mean_motion_ddot": 0,
        "tle_line1": "1 35618U 97051QQ  25331.81096767  .00001919  00000+0  46503-3 0  9993",
        "tle_line2": "2 35618  86.3414   0.0275 0030831  70.0508 290.4015 14.52216193651771"
      },
      "geometry": {
        "type": "Point",
        "coordinates": [
          -177.3099146779035,
          -52.87989633739007
        ]
      }
    },
    {
      "type": "Feature",
      "properties": {
        "norad_id": 35620,
        "name": "IRIDIUM 33 DEB",
        "group": "iridium-33-debris",
        "lat": 14.123724611528408,
        "lon": -137.45231435857534,
        "alt_km": 753.3488092078151,
        "timestamp": "2025-12-02T19:35:50.940155+00:00",
        "meta_object_name": "IRIDIUM 33 DEB",
        "meta_object_id": "1997-051QS",
        "meta_epoch": "2025-12-02T09:30:29.782656",
        "meta_mean_motion": 14.37436456,
        "meta_eccentricity": 0.0145496,
        "meta_inclination": 86.3879,
        "meta_ra_of_asc_node": 221.8141,
        "meta_arg_of_pericenter": 292.9004,
        "meta_mean_anomaly": 65.689,
        "meta_ephemeris_type": 0,
        "meta_classification_type": "U",
        "meta_norad_cat_id": 35620,
        "meta_element_set_no": 999,
        "meta_rev_at_epoch": 59817,
        "meta_bstar": 0.0068358,
        "meta_mean_motion_dot": 0.00023164,
        "meta_mean_motion_ddot": 0,
        "tle_line1": "1 35620U 97051QS  25336.39617804  .00023164  00000+0  68358-2 0  9992",
        "tle_line2": "2 35620  86.3879 221.8141 0145496 292.9004  65.6890 14.37436456598170"
      },
      "geometry": {
        "type": "Point",
        "coordinates": [
          -137.45231435857534,
          14.123724611528408
        ]
      }
    },
    {
      "type": "Feature",
      "properties": {
        "norad_id": 35622,
        "name": "IRIDIUM 33 DEB",
        "group": "iridium-33-debris",
        "lat": -84.01208249905388,
        "lon": 127.74910977149283,
        "alt_km": 566.7226177916718,
        "timestamp": "2025-12-02T19:35:50.940166+00:00",
        "meta_object_name": "IRIDIUM 33 DEB",
        "meta_object_id": "1997-051QU",
        "meta_epoch": "2025-12-02T06:19:13.217952",
        "meta_mean_motion": 15.02606041,
        "meta_eccentricity": 0.0010695,
        "meta_inclination": 86.2044,
        "meta_ra_of_asc_node": 268.7542,
        "meta_arg_of_pericenter": 2.5731,
        "meta_mean_anomaly": 152.2822,
        "meta_ephemeris_type": 0,
        "meta_classification_type": "U",
        "meta_norad_cat_id": 35622,
        "meta_element_set_no": 999,
        "meta_rev_at_epoch": 87202,
        "meta_bstar": 0.0056995,
        "meta_mean_motion_dot": 0.00076695,
        "meta_mean_motion_ddot": 0,
        "tle_line1": "1 35622U 97051QU  25336.26334743  .00076695  00000+0  56995-2 0  9999",
        "tle_line2": "2 35622  86.2044 268.7542 0010695   2.5731 152.2822 15.02606041872023"
      },
      "geometry": {
        "type": "Point",
        "coordinates": [
          127.74910977149283,
          -84.01208249905388
        ]
      }
    },
    {
      "type": "Feature",
      "properties": {
        "norad_id": 35628,
        "name": "IRIDIUM 33 DEB",
        "group": "iridium-33-debris",
        "lat": -51.893067601504875,
        "lon": 8.843362414783066,
        "alt_km": 673.6400635414884,
        "timestamp": "2025-12-02T19:35:50.940177+00:00",
        "meta_object_name": "IRIDIUM 33 DEB",
        "meta_object_id": "1997-051RA",
        "meta_epoch": "2025-12-01T09:27:48.625056",
        "meta_mean_motion": 14.67320327,
        "meta_eccentricity": 0.00118206,
        "meta_inclination": 86.3586,
        "meta_ra_of_asc_node": 14.1343,
        "meta_arg_of_pericenter": 22.1309,
        "meta_mean_anomaly": 338.0413,
        "meta_ephemeris_type": 0,
        "meta_classification_type": "U",
        "meta_norad_cat_id": 35628,
        "meta_element_set_no": 999,
        "meta_rev_at_epoch": 86280,
        "meta_bstar": 0.0015830322,
        "meta_mean_motion_dot": 8.967e-05,
        "meta_mean_motion_ddot": 0,
        "tle_line1": "1 35628U 97051RA  25335.39431279  .00008967  00000+0  15830-2 0  9990",
        "tle_line2": "2 35628  86.3586  14.1343 0011820  22.1309 338.0413 14.67320327862808"
      },
      "geometry": {
        "type": "Point",
        "coordinates": [
          8.843362414783066,
          -51.893067601504875
        ]
      }
    },
    {
      "type": "Feature",
      "properties": {
        "norad_id": 35631,
        "name": "IRIDIUM 33 DEB",
        "group": "iridium-33-debris",
        "lat": -24.23445794964828,
        "lon": -153.11303238971635,
        "alt_km": 733.0599980746956,
        "timestamp": "2025-12-02T19:35:50.940187+00:00",
        "meta_object_name": "IRIDIUM 33 DEB",
        "meta_object_id": "1997-051RD",
        "meta_epoch": "2025-12-01T09:32:13.809120",
        "meta_mean_motion": 14.47260749,
        "meta_eccentricity": 0.00179714,
        "meta_inclination": 86.3683,
        "meta_ra_of_asc_node": 25.8593,
        "meta_arg_of_pericenter": 152.8458,
        "meta_mean_anomaly": 221.75,
        "meta_ephemeris_type": 0,
        "meta_classification_type": "U",
        "meta_norad_cat_id": 35631,
        "meta_element_set_no": 999,
        "meta_rev_at_epoch": 87033,
        "meta_bstar": 0.00039861832,
        "meta_mean_motion_dot": 1.48e-05,
        "meta_mean_motion_ddot": 0,
        "tle_line1": "1 35631U 97051RD  25335.39738205  .00001480  00000+0  39862-3 0  9998",
        "tle_line2": "2 35631  86.3683  25.8593 0017971 152.8458 221.7500 14.47260749870336"
      },
      "geometry": {
        "type": "Point",
        "coordinates": [
          -153.11303238971635,
          -24.23445794964828
        ]
      }
    },
    {
      "type": "Feature",
      "properties": {
        "norad_id": 35680,
        "name": "IRIDIUM 33 DEB",
        "group": "iridium-33-debris",
        "lat": 41.8612908400573,
        "lon": 29.417492052821324,
        "alt_km": 821.3908691114912,
        "timestamp": "2025-12-02T19:35:50.940197+00:00",
        "meta_object_name": "IRIDIUM 33 DEB",
        "meta_object_id": "1997-051RJ",
        "meta_epoch": "2025-12-01T22:00:09.279648",
        "meta_mean_motion": 14.20616647,
        "meta_eccentricity": 0.01501261,
        "meta_inclination": 86.103,
        "meta_ra_of_asc_node": 26.3138,
        "meta_arg_of_pericenter": 313.2693,
        "meta_mean_anomaly": 168.1986,
        "meta_ephemeris_type": 0,
        "meta_classification_type": "U",
        "meta_norad_cat_id": 35680,
        "meta_element_set_no": 999,
        "meta_rev_at_epoch": 60547,
        "meta_bstar": 0.0036692718,
        "meta_mean_motion_dot": 8.864e-05,
        "meta_mean_motion_ddot": 0,
        "tle_line1": "1 35680U 97051RJ  25335.91677407  .00008864  00000+0  36693-2 0  9997",
        "tle_line2": "2 35680  86.1030  26.3138 0150126 313.2693 168.1986 14.20616647605475"
      },
      "geometry": {
        "type": "Point",
        "coordinates": [
          29.417492052821324,
          41.8612908400573
        ]
      }
    }
  ]
}